{
    "links": {
        "self": "http://www.neowsapp.com/rest/v1/neo/3471583?api_key=iIulBulltgU6a56xZRHN4H3l9WmuAYTsLGpBGhQ2"
    },
    "id": "3471583",
    "neo_reference_id": "3471583",
    "name": "(2009 UA)",
    "designation": "2009 UA",
    "nasa_jpl_url": "http://ssd.jpl.nasa.gov/sbdb.cgi?sstr=3471583",
    "absolute_magnitude_h": 23.7,
    "estimated_diameter": {
        "kilometers": {
            "estimated_diameter_min": 0.0483676488,
            "estimated_diameter_max": 0.1081533507
        },
        "meters": {
            "estimated_diameter_min": 48.3676488219,
            "estimated_diameter_max": 108.1533506775
        },
        "miles": {
            "estimated_diameter_min": 0.0300542543,
            "estimated_diameter_max": 0.0672033557
        },
        "feet": {
            "estimated_diameter_min": 158.6865169607,
            "estimated_diameter_max": 354.8338390368
        }
    },
    "is_potentially_hazardous_asteroid": false,
    "close_approach_data": [
        {
            "close_approach_date": "1920-08-27",
            "close_approach_date_full": "1920-Aug-27 01:16",
            "epoch_date_close_approach": -1557269040000,
            "relative_velocity": {
                "kilometers_per_second": "13.7319762369",
                "kilometers_per_hour": "49435.1144528627",
                "miles_per_hour": "30717.0576443357"
            },
            "miss_distance": {
                "astronomical": "0.3425529233",
                "lunar": "133.2530871637",
                "kilometers": "51245187.687953371",
                "miles": "31842283.0830076798"
            },
            "orbiting_body": "Earth"
        },
        {
            "close_approach_date": "2009-10-10",
            "close_approach_date_full": "2009-Oct-10 08:50",
            "epoch_date_close_approach": 1255164600000,
            "relative_velocity": {
                "kilometers_per_second": "4.7675278331",
                "kilometers_per_hour": "17163.1001992483",
                "miles_per_hour": "10664.4830099163"
            },
            "miss_distance": {
                "astronomical": "0.0873822378",
                "lunar": "33.9916905042",
                "kilometers": "13072196.650713486",
                "miles": "8122686.3447826668"
            },
            "orbiting_body": "Earth"
        },
        {
            "close_approach_date": "2087-09-24",
            "close_approach_date_full": "2087-Sep-24 20:32",
            "epoch_date_close_approach": 3715273920000,
            "relative_velocity": {
                "kilometers_per_second": "5.3269748846",
                "kilometers_per_hour": "19177.1095847304",
                "miles_per_hour": "11915.9101194676"
            },
            "miss_distance": {
                "astronomical": "0.0809419788",
                "lunar": "31.4864297532",
                "kilometers": "12108747.622065156",
                "miles": "7524026.8785889128"
            },
            "orbiting_body": "Earth"
        }
    ],
    "orbital_data": {
        "orbit_id": "9",
        "orbit_determination_date": "2017-04-06 08:59:35",
        "first_observation_date": "2009-10-16",
        "last_observation_date": "2009-10-26",
        "data_arc_in_days": 10,
        "observations_used": 26,
        "orbit_uncertainty": "8",
        "minimum_orbit_intersection": ".0721992",
        "jupiter_tisserand_invariant": "4.108",
        "epoch_osculation": "2455121.5",
        "eccentricity": ".3771766986373472",
        "semi_major_axis": "1.705782966580901",
        "inclination": "4.206761543414941",
        "ascending_node_longitude": "342.6267275925942",
        "orbital_period": "813.7370439114391",
        "perihelion_distance": "1.062401378654096",
        "perihelion_argument": "34.07921705774397",
        "aphelion_distance": "2.349164554507705",
        "perihelion_time": "2455116.786115068976",
        "mean_anomaly": "2.085438518334589",
        "mean_motion": ".4424033570716729",
        "equinox": "J2000",
        "orbit_class": {
            "orbit_class_type": "AMO",
            "orbit_class_description": "Near-Earth asteroid orbits similar to that of 1221 Amor",
            "orbit_class_range": "1.017 AU < q (perihelion) < 1.3 AU"
        }
    },
    "is_sentry_object": false
}